CZ-2C R/B               
1 54039U 22132E   26021.47375623  .00043515  00000+0  58280-3 0  9992
2 54039  97.2956  23.5156 0016632 265.5002  94.4354 15.57712206183019
GSLV R/B                
1 54149U 22138AN  26021.51488330  .00006685  00000+0  58556-3 0  9998
2 54149  87.3841 182.1510 0020420 328.6577  31.3436 14.96384592176870
XRISM                   
1 57800U 23137A   26021.28227087  .00011523  00000+0  66939-3 0  9990
2 57800  31.0008 230.1487 0008040 284.7843  75.1904 15.10849356130616
ACS3                    
1 59588U 24077B   26019.85803563 -.00000334  00000+0 -25633-3 0  9994
2 59588  97.2370 331.9399 0053916 237.7526 121.8405 13.87295570 87427
SZ-21 MODULE            
1 66515U 25246C   26021.39350193  .00045800  00000+0  45441-3 0  9993
2 66515  41.4762 133.7187 0002938 215.6118 144.4526 15.64963547 10653
